      2.10          N: GNSS NAV DATA                        RINEX VERSION / TYPE
fic2rin                                 08/01/2018 00:07:36 PGM / RUN BY / DATE
                                                            END OF HEADER
29 18  7 31  4  0  0.0 4.049660637975e-04-6.934897101019e-12 0.000000000000e+00
    8.800000000000e+01 8.846875000000e+01 3.959807799032e-09-2.459949861529e+00
    4.623085260391e-06 8.526893798262e-04 5.818903446198e-06 5.153657699585e+03
    1.872000000000e+05 2.421438694000e-08 1.416640493014e+00-7.078051567078e-08
    9.841079777388e-01 2.808437500000e+02 1.447664879064e+00-7.938544957976e-09
    3.032269163325e-10 1.000000000000e+00 2.012000000000e+03 0.000000000000e+00
    3.400000000000e+00 0.000000000000e+00-1.024454832077e-08 8.800000000000e+01
    1.800060000000e+05 4.000000000000e+00
20 18  7 31  4  0  0.0 5.133287049830e-04 6.821210263297e-13 0.000000000000e+00
    9.200000000000e+01-9.459375000000e+01 5.060210778090e-09 8.096208449636e-01
   -4.885718226433e-06 4.068536683917e-03 9.924173355103e-06 5.153679052353e+03
    1.872000000000e+05 1.862645149231e-09-2.944153759570e+00-8.009374141693e-08
    9.291667492390e-01 1.717500000000e+02 2.064832507488e+00-8.353562245112e-09
   -1.428630936784e-12 1.000000000000e+00 2.012000000000e+03 0.000000000000e+00
    2.400000000000e+00 0.000000000000e+00-8.381903171539e-09 9.200000000000e+01
    1.800060000000e+05 4.000000000000e+00
28 18  7 31  4  0  0.0 7.349918596447e-04 2.614797267597e-12 0.000000000000e+00
    6.300000000000e+01 4.387500000000e+01 3.576220392505e-09-2.272705689577e+00
    2.196058630943e-06 1.946889841929e-02 1.116842031479e-05 5.153686038971e+03
    1.872000000000e+05 3.222376108170e-07 3.951903229318e-01 1.322478055954e-07
    9.856225236600e-01 1.764375000000e+02-1.516653074757e+00-7.186370769759e-09
   -3.078699668770e-10 1.000000000000e+00 2.012000000000e+03 0.000000000000e+00
    2.400000000000e+00 0.000000000000e+00-1.117587089539e-08 6.300000000000e+01
    1.800060000000e+05 4.000000000000e+00
18 18  7 31  4  0  0.0 4.003522917628e-05 4.547473508865e-12 0.000000000000e+00
    1.890000000000e+02-4.378125000000e+01 5.006279960227e-09 6.753680350581e-01
   -2.445653080940e-06 1.486918225419e-02 3.039836883545e-06 5.153636966705e+03
    1.872000000000e+05-1.620501279831e-07 2.359602808437e+00-3.166496753693e-08
    9.504561235240e-01 3.174062500000e+02 1.329359606855e+00-8.775722686932e-09
   -1.628639267934e-10 1.000000000000e+00 2.012000000000e+03 0.000000000000e+00
    3.400000000000e+00 0.000000000000e+00-6.519258022308e-09 1.890000000000e+02
    1.800060000000e+05 4.000000000000e+00
18 18  7 31  3 59 44.0 4.003290086985e-05 4.547473508865e-12 0.000000000000e+00
    8.000000000000e+00-4.378125000000e+01 5.006279960227e-09 6.730343369359e-01
   -2.445653080940e-06 1.486917946022e-02 3.039836883545e-06 5.153636970520e+03
    1.871840000000e+05-1.620501279831e-07 2.359602964969e+00-3.166496753693e-08
    9.504561308386e-01 3.174062500000e+02 1.329359505914e+00-8.775722686932e-09
   -1.628639267934e-10 1.000000000000e+00 2.012000000000e+03 0.000000000000e+00
    2.400000000000e+00 0.000000000000e+00-6.519258022308e-09 8.000000000000e+00
    1.808160000000e+05 4.000000000000e+00
20 18  7 31  3 59 44.0 5.133287049830e-04 6.821210263297e-13 0.000000000000e+00
    0.000000000000e+00-9.459375000000e+01 5.060210778090e-09 8.072872785041e-01
   -4.885718226433e-06 4.068535752594e-03 9.924173355103e-06 5.153679056168e+03
    1.871840000000e+05 1.862645149231e-09-2.944153630833e+00-8.009374141693e-08
    9.291667448502e-01 1.717500000000e+02 2.064832340715e+00-8.353562245112e-09
   -1.071473202588e-12 1.000000000000e+00 2.012000000000e+03 0.000000000000e+00
    2.400000000000e+00 0.000000000000e+00-8.381903171539e-09 0.000000000000e+00
    1.834560000000e+05 4.000000000000e+00
23 18  7 31  3 59 44.0-2.136323601007e-04 6.821210263297e-13 0.000000000000e+00
    3.900000000000e+01 3.478125000000e+01 5.224146178086e-09 1.744262679222e+00
    1.810491085052e-06 1.265785645228e-02 8.188188076019e-06 5.153758562088e+03
    1.871840000000e+05-3.688037395477e-07-1.801423700116e+00-2.421438694000e-08
    9.431322977258e-01 2.174375000000e+02-2.338127321714e+00-8.372491605025e-09
    4.550189533658e-10 1.000000000000e+00 2.012000000000e+03 0.000000000000e+00
    2.400000000000e+00 0.000000000000e+00-2.002343535423e-08 3.900000000000e+01
    1.834560000000e+05 4.000000000000e+00
20 18  7 31  5 59 44.0 5.133333615959e-04 6.821210263297e-13 0.000000000000e+00
    1.000000000000e+00-9.315625000000e+01 4.988422073517e-09 1.857547700809e+00
   -4.809349775314e-06 4.068233538419e-03 1.010112464428e-05 5.153678346634e+03
    1.943840000000e+05 9.872019290924e-08-2.944212960939e+00 3.911554813385e-08
    9.291672685749e-01 1.675937500000e+02 2.064753531855e+00-8.202484523547e-09
   -3.678724662220e-11 1.000000000000e+00 2.012000000000e+03 0.000000000000e+00
    2.400000000000e+00 0.000000000000e+00-8.381903171539e-09 1.000000000000e+00
    1.872060000000e+05 4.000000000000e+00
18 18  7 31  5 59 44.0 4.006549715996e-05 4.547473508865e-12 0.000000000000e+00
    9.000000000000e+00-4.718750000000e+01 4.869488548029e-09 1.723182576831e+00
   -2.752989530563e-06 1.486917573493e-02 2.646818757057e-06 5.153638509750e+03
    1.943840000000e+05-4.656612873077e-08 2.359539670355e+00-3.185123205185e-07
    9.504562610383e-01 3.238437500000e+02 1.329418149911e+00-8.518569118311e-09
   -6.821712723145e-11 1.000000000000e+00 2.012000000000e+03 0.000000000000e+00
    2.400000000000e+00 0.000000000000e+00-6.519258022308e-09 9.000000000000e+00
    1.872060000000e+05 4.000000000000e+00
23 18  7 31  5 59 44.0-2.136277034879e-04 6.821210263297e-13 0.000000000000e+00
    4.000000000000e+01 3.309375000000e+01 5.066639617306e-09 2.794432561527e+00
    1.665204763412e-06 1.265846379101e-02 8.339062333107e-06 5.153757171631e+03
    1.943840000000e+05-2.235174179077e-08-1.801482821025e+00-2.067536115646e-07
    9.431373901437e-01 2.119687500000e+02-2.338163347534e+00-8.014976713094e-09
    5.014494588113e-10 1.000000000000e+00 2.012000000000e+03 0.000000000000e+00
    2.400000000000e+00 0.000000000000e+00-2.002343535423e-08 4.000000000000e+01
    1.872060000000e+05 4.000000000000e+00
 1 18  7 31  6  0  0.0-7.131416350603e-05-3.979039320257e-12 0.000000000000e+00
    3.800000000000e+01-4.909375000000e+01 4.402683389435e-09 1.967074447815e+00
   -2.631917595863e-06 8.037273772061e-03 3.239139914513e-06 5.153666713715e+03
    1.944000000000e+05-1.285225152969e-07 2.408098738795e+00-1.117587089539e-08
    9.720828452552e-01 3.235625000000e+02 6.716500770359e-01-8.265344284766e-09
   -1.282196265764e-10 1.000000000000e+00 2.012000000000e+03 0.000000000000e+00
    2.400000000000e+00 0.000000000000e+00 5.587935447693e-09 3.800000000000e+01
    1.872060000000e+05 4.000000000000e+00
 2 18  7 31  6  0  0.0 4.224432632327e-05-1.136868377216e-11 0.000000000000e+00
    8.200000000000e+01-5.321875000000e+01 4.695909889210e-09 2.287117818677e+00
   -2.909451723099e-06 1.796387613285e-02 2.261251211166e-06 5.153784215927e+03
    1.944000000000e+05 2.179294824600e-07 2.345623062330e+00-2.607703208923e-07
    9.511177165220e-01 3.272500000000e+02-1.842145837408e+00-8.170340327470e-09
   -8.893227581482e-11 1.000000000000e+00 2.012000000000e+03 0.000000000000e+00
    2.400000000000e+00 0.000000000000e+00-2.048909664154e-08 8.200000000000e+01
    1.872060000000e+05 4.000000000000e+00
 5 18  7 31  6  0  0.0-3.836117684841e-06 5.684341886081e-13 0.000000000000e+00
    6.400000000000e+01-6.384375000000e+01 4.560547107950e-09-1.331013905340e+00
   -3.360211849213e-06 5.516969598830e-03 1.006200909615e-05 5.153757936478e+03
    1.944000000000e+05 1.136213541031e-07-2.855323975247e+00-3.352761268616e-08
    9.486213609274e-01 1.717187500000e+02 6.445443525909e-01-7.991404302637e-09
    8.214627886510e-11 1.000000000000e+00 2.012000000000e+03 0.000000000000e+00
    2.400000000000e+00 0.000000000000e+00-1.117587089539e-08 6.400000000000e+01
    1.872060000000e+05 4.000000000000e+00
 3 18  7 31  6  0  0.0 1.140302047133e-04 5.684341886081e-12 0.000000000000e+00
    9.100000000000e+01-6.915625000000e+01 4.285178494885e-09 1.013879194515e+00
   -3.824010491371e-06 1.582497032359e-03 1.024641096592e-05 5.153714933395e+03
    1.944000000000e+05-3.166496753693e-08-2.832618497725e+00 1.117587089539e-08
    9.617270954052e-01 1.837187500000e+02 5.263551556164e-01-7.881399720505e-09
    5.178787145843e-11 1.000000000000e+00 2.012000000000e+03 0.000000000000e+00
    2.400000000000e+00 0.000000000000e+00 1.862645149231e-09 9.100000000000e+01
    1.872060000000e+05 4.000000000000e+00
 7 18  7 31  6  0  0.0 1.498758792877e-04-6.366462912410e-12 0.000000000000e+00
    3.800000000000e+01-1.443750000000e+01 5.147000107500e-09 1.309465328304e+00
   -5.792826414108e-07 1.197767036501e-02 5.602836608887e-06 5.153645120621e+03
    1.944000000000e+05-6.705522537231e-08-7.214024024028e-01 2.030283212662e-07
    9.578719098156e-01 2.742812500000e+02-2.507801796331e+00-8.489996499575e-09
   -3.903734034763e-10 1.000000000000e+00 2.012000000000e+03 0.000000000000e+00
    2.400000000000e+00 0.000000000000e+00-1.117587089539e-08 3.800000000000e+01
    1.872060000000e+05 4.000000000000e+00
 6 18  7 31  6  0  0.0 3.815847449005e-04-4.092726157978e-12 0.000000000000e+00
    8.000000000000e+01-5.218750000000e+01 4.308036589873e-09 2.159552708050e+00
   -2.592802047729e-06 1.018148963340e-03 3.179535269737e-06 5.153671642303e+03
    1.944000000000e+05-9.313225746155e-09 2.399774906086e+00 7.450580596924e-09
    9.717817445303e-01 3.225000000000e+02-1.058512830965e+00-8.172840431609e-09
   -1.121475285376e-10 1.000000000000e+00 2.012000000000e+03 0.000000000000e+00
    2.400000000000e+00 0.000000000000e+00 4.656612873077e-09 8.000000000000e+01
    1.872060000000e+05 4.000000000000e+00
